IRIDIUM 116             
1 43072U 17083C   23332.59594722  .00000582  00000+0  20074-3 0  9991
2 43072  86.3968 351.3646 0002138  89.6769 270.4672 14.34224390310649
IRIDIUM 130             
1 43073U 17083D   23332.42470130  .00000547  00000+0  18814-3 0  9990
2 43073  86.3978 351.6212 0002275  94.4654 265.6802 14.34222981310568
IRIDIUM 151             
1 43074U 17083E   23332.46909311  .00000563  00000+0  19390-3 0  9991
2 43074  86.3971 351.4544 0001977  90.1575 269.9848 14.34225561310598
IRIDIUM 134             
1 43075U 17083F   23332.50716077  .00000555  00000+0  19120-3 0  9994
2 43075  86.3974 351.4341 0002369  92.4441 267.7026 14.34222773310563
IRIDIUM 137             
1 43076U 17083G   23332.58960974  .00000577  00000+0  19886-3 0  9993
2 43076  86.3973 351.4738 0002172  82.7302 277.4140 14.34223460310641
IRIDIUM 141             
1 43077U 17083H   23332.09488576  .00000539  00000+0  18527-3 0  9992
2 43077  86.3966 351.5650 0003056 103.5354 256.6183 14.34222802310576
IRIDIUM 153             
1 43078U 17083J   23332.46567400  .00000419  00000+0  14254-3 0  9998
2 43078  86.3944 319.8621 0002007  98.1347 262.0076 14.34224072311736
IRIDIUM 131             
1 43079U 17083K   23332.43104391  .00000550  00000+0  18920-3 0  9992
2 43079  86.3976 351.5472 0002129  95.1288 265.0151 14.34226411310550
